2022-047AF              
1 52423U 22047AF  22150.17735464  .00006143  00000+0  35774-3 0  9990
2 52423  97.4492 235.4455 0006538 252.7295 107.3221 15.12355297  5589
2022-047AG              
1 52424U 22047AG  22150.04710888  .00007600  00000+0  44252-3 0  9990
2 52424  97.4547 235.3248 0007769 255.3281 104.7088 15.12278861  5562
2022-047AH              
1 52425U 22047AH  22150.17963014  .00007249  00000+0  42232-3 0  9991
2 52425  97.4505 235.4533 0007683 258.0376 101.9994 15.12272571  5584
2022-047AJ              
1 52426U 22047AJ  22149.78061973  .00012832  00000+0  73801-3 0  9990
2 52426  97.4508 235.0693 0008142 261.3787  98.6522 15.12571156  5529
2022-047AK              
1 52427U 22047AK  22149.78295361  .00009033  00000+0  52477-3 0  9996
2 52427  97.4507 235.0674 0007866 262.1761  97.8577 15.12302291  5524
JILIN-01 KUANFU 01C     
1 52443U 22048A   22150.49672390  .00002738  00000+0  17454-3 0  9997
2 52443  97.6829 215.1299 0013097 176.1443 291.4461 15.09524829  3832
JILIN-01 GAOFEN 3D 27   
1 52444U 22048B   22150.49657455  .00004062  00000+0  25744-3 0  9996
2 52444  97.6821 215.1297 0014479 174.7321 294.7607 15.09435753  3843
JILIN-01 GAOFEN 3D 28   
1 52445U 22048C   22150.49473066  .00004064  00000+0  25631-3 0  9998
2 52445  97.6793 215.1235 0014676 177.6110 291.7247 15.09605495  3840
JILIN-01 GAOFEN 3D 29   
1 52446U 22048D   22150.55961488  .00004194  00000+0  26360-3 0  9990
2 52446  97.6815 215.1983 0014774 179.9950 285.9650 15.09716126  3850
JILIN-01 GAOFEN 3D 30   
1 52447U 22048E   22150.48920120  .00004412  00000+0  27547-3 0  9992
2 52447  97.6807 215.1278 0015008 183.6402 272.8141 15.09929753  3845
JILIN-01 GAOFEN 3D 31   
1 52448U 22048F   22150.48702843  .00004415  00000+0  27480-3 0  9992
2 52448  97.6808 215.1316 0014073 185.6517 270.1711 15.10048140  3848
JILIN-01 GAOFEN 3D 32   
1 52449U 22048G   22150.56046220  .00004242  00000+0  26342-3 0  9996
2 52449  97.6816 215.2101 0014158 187.0258 311.9825 15.10160446  3858
JILIN-01 GAOFEN 3D 33   
1 52450U 22048H   22150.48495263  .00004238  00000+0  26182-3 0  9991
2 52450  97.6805 215.1348 0014182 191.3764 264.4446 15.10350586  3843
STARLINK-3870           
1 52451U 22049A   22150.50513680 -.00339002  00000+0 -38426-2 0  9995
2 52451  53.2135 147.3468 0001425  31.4446 328.6654 15.62825449  3963
STARLINK-3909           
1 52452U 22049B   22150.50527498 -.00358291  00000+0 -40376-2 0  9996
2 52452  53.2150 147.3223 0001197  25.4558 334.6517 15.63036877  3968
STARLINK-3872           
1 52453U 22049C   22150.25001157 -.00717056  00000+0 -85904-2 0  9992
2 52453  53.2175 148.5994 0001645  32.6818 332.9600 15.62609500  3929
STARLINK-3888           
1 52454U 22049D   22149.91667824 -.00714273  00000+0 -83863-2 0  9993
2 52454  53.2174 150.2158 0001532  41.3393 247.0701 15.63113108  1304
STARLINK-3890           
1 52455U 22049E   22150.25001157 -.00716867  00000+0 -85876-2 0  9991
2 52455  53.2175 148.6028 0001209  54.9333 311.4452 15.62613820  3922
STARLINK-3896           
1 52456U 22049F   22150.50422726 -.00070968  00000+0 -74182-3 0  9993
2 52456  53.2153 147.3504 0003105 304.0385  56.0336 15.63893306  3964
STARLINK-3899           
1 52457U 22049G   22150.25001157 -.00716777  00000+0 -85837-2 0  9990
2 52457  53.2176 148.6134 0001112  68.8172 299.0342 15.62622597  3921
STARLINK-3898           
1 52458U 22049H   22149.91667824 -.00714216  00000+0 -83783-2 0  9995
2 52458  53.2174 150.2392 0001523  41.3902 250.6762 15.63135125  1304
STARLINK-3856           
1 52459U 22049J   22150.50001157  .00075010  00000+0  53439-3 0  9990
2 52459  53.2150 147.0766 0002361  23.4874  95.0404 15.73185856  3963
STARLINK-3865           
1 52460U 22049K   22150.50001157  .00072441  00000+0  51754-3 0  9995
2 52460  53.2145 147.0728 0002207  20.0575  99.7648 15.73134188  3960
STARLINK-3900           
1 52461U 22049L   22150.50001157  .00195966  00000+0  13775-2 0  9994
2 52461  53.2150 147.0774 0002414  19.9450  98.2282 15.73042978  3960
STARLINK-3903           
1 52462U 22049M   22150.28790044 -.00069336  00000+0 -49651-3 0  9996
2 52462  53.2154 148.1164 0002045  23.0639 337.0472 15.73064462  3939
STARLINK-3885           
1 52463U 22049N   22150.50001157  .00056411  00000+0  40352-3 0  9999
2 52463  53.2150 147.0752 0002115  22.9752  96.2728 15.73206397  3965
STARLINK-3904           
1 52464U 22049P   22150.47866482 -.00011260  00000+0 -76092-4 0  9992
2 52464  53.2156 147.1743 0002096  28.5094 331.6040 15.73142916  3961
STARLINK-3863           
1 52465U 22049Q   22150.47877109  .00020309  00000+0  14913-3 0  9996
2 52465  53.2151 147.1761 0001933  24.5144 335.5968 15.73143014  3960
STARLINK-3840           
1 52466U 22049R   22150.50001157  .00073537  00000+0  52525-3 0  9995
2 52466  53.2144 147.0663 0002416  16.1996 106.7963 15.73133320  3964
STARLINK-3873           
1 52467U 22049S   22150.50001157  .00074383  00000+0  53062-3 0  9993
2 52467  53.2149 147.0682 0002334  24.2956  98.0989 15.73158399  3960
STARLINK-3864           
1 52468U 22049T   22150.50001157  .00074805  00000+0  53387-3 0  9993
2 52468  53.2144 147.0620 0002198  32.1364  92.7630 15.73146021  3960
STARLINK-3828           
1 52469U 22049U   22150.25001157  .00153380  00000+0  10813-2 0  9998
2 52469  53.2146 148.3016 0002235  21.8299 125.0968 15.73114841  3925
STARLINK-3859           
1 52470U 22049V   22150.25001157  .00028678  00000+0  20841-3 0  9994
2 52470  53.2144 148.2963 0002125  20.4043 129.0304 15.73158682  3924
STARLINK-3862           
1 52471U 22049W   22150.50001157  .00071367  00000+0  50908-3 0  9993
2 52471  53.2149 147.0647 0002322  24.6531  99.5547 15.73176366  3966
STARLINK-3881           
1 52472U 22049X   22150.28695369 -.00017040  00000+0 -11757-3 0  9992
2 52472  53.2144 148.1084 0001792  28.3285 331.7832 15.73132318  3930
STARLINK-3879           
1 52473U 22049Y   22150.50001157  .00009712  00000+0  73468-4 0  9997
2 52473  53.2147 147.0615 0002310  22.8124 102.7273 15.73223500  3962
STARLINK-3855           
1 52474U 22049Z   22150.47732620  .00067208  00000+0  48058-3 0  9990
2 52474  53.2142 147.1635 0001543  26.3104 333.7994 15.73144659  3968
STARLINK-3882           
1 52475U 22049AA  22150.50001157  .00072239  00000+0  51479-3 0  9990
2 52475  53.2143 147.0577 0002377  19.3583 107.4466 15.73194505  3968
STARLINK-3835           
1 52476U 22049AB  22149.91667824  .00097216  00000+0  69248-3 0  9998
2 52476  53.2140 149.9351 0002005  19.0473  45.3900 15.73084265  1300
STARLINK-3860           
1 52477U 22049AC  22150.25001157  .00027129  00000+0  19756-3 0  9994
2 52477  53.2144 148.2925 0002399  21.8445 129.5308 15.73142343  3929
STARLINK-3825           
1 52478U 22049AD  22150.25001157  .00028363  00000+0  20585-3 0  9998
2 52478  53.2139 148.2861 0002317  23.9349 129.9631 15.73195806  3924
STARLINK-3878           
1 52479U 22049AE  22150.25001157  .00027489  00000+0  19995-3 0  9990
2 52479  53.2142 148.2832 0002258  26.7332 129.0110 15.73161591  3921
STARLINK-3839           
1 52480U 22049AF  22150.50001157  .00072649  00000+0  51895-3 0  9993
2 52480  53.2138 147.0468 0002325  15.8939 115.9331 15.73136351  3966
STARLINK-3842           
1 52481U 22049AG  22150.50001157  .00076470  00000+0  54492-3 0  9996
2 52481  53.2142 147.0529 0002334  18.3795 110.9718 15.73172554  3967
STARLINK-3813           
1 52482U 22049AH  22150.50001157  .00079366  00000+0  56450-3 0  9990
2 52482  53.2138 147.0414 0002071  15.5175 118.7903 15.73201963  3964
STARLINK-3875           
1 52483U 22049AJ  22150.50001157  .00075212  00000+0  53652-3 0  9998
2 52483  53.2138 147.0476 0002281  26.8523 104.3664 15.73154859  3964
STARLINK-3887           
1 52484U 22049AK  22150.25001157 -.00055833  00000+0 -39549-3 0  9999
2 52484  53.2151 148.2772 0002076  25.7275 132.7457 15.73229394  3924
STARLINK-3913           
1 52485U 22049AL  22150.25001157  .00089978  00000+0  64048-3 0  9997
2 52485  53.2140 148.2799 0002199  19.2875 137.6372 15.73132467  3926
STARLINK-3918           
1 52486U 22049AM  22150.25001157  .00031027  00000+0  22521-3 0  9990
2 52486  53.2152 148.2734 0002129  22.6632 136.8698 15.73142475  3923
STARLINK-3902           
1 52487U 22049AN  22150.47654200  .00020830  00000+0  15277-3 0  9998
2 52487  53.2141 147.1581 0001329 354.7744   5.3262 15.73152272  3961
STARLINK-3892           
1 52488U 22049AP  22150.50001157 -.00032027  00000+0 -22432-3 0  9994
2 52488  53.2155 147.0340 0002235  26.5956 111.1194 15.73229226  3969
STARLINK-3923           
1 52489U 22049AQ  22150.25001157  .00030683  00000+0  22244-3 0  9992
2 52489  53.2141 148.2763 0002037  19.0903 139.8864 15.73177993  3926
STARLINK-3914           
1 52490U 22049AR  22150.25001157  .00031672  00000+0  22944-3 0  9990
2 52490  53.2157 148.2682 0002231  30.1051 132.1614 15.73177310  3921
STARLINK-3908           
1 52491U 22049AS  22150.50001157 -.00005791  00000+0 -36792-4 0  9991
2 52491  53.2140 147.0369 0002372  20.1577 116.7391 15.73235513  3965
STARLINK-3916           
1 52492U 22049AT  22150.25001157  .00029674  00000+0  21553-3 0  9996
2 52492  53.2152 148.2657 0002218  34.6028 128.7730 15.73151680  3920
STARLINK-3883           
1 52493U 22049AU  22149.91667824  .00078948  00000+0  56363-3 0  9992
2 52493  53.2138 149.9183 0001921  27.2129  45.3535 15.73116736  1307
STARLINK-3857           
1 52494U 22049AV  22150.50001157  .00079102  00000+0  56256-3 0  9995
2 52494  53.2149 147.0237 0002268  22.4592 120.0387 15.73205563  3962
STARLINK-3905           
1 52495U 22049AW  22150.50001157  .00076093  00000+0  54213-3 0  9993
2 52495  53.2153 147.0308 0002347  22.0060 117.3930 15.73179209  3961
STARLINK-3871           
1 52496U 22049AX  22149.91667824 -.00692286  00000+0 -41283-2 0  9998
2 52496  53.2172 148.1255 0001189  67.8582 157.7608 15.79035793  1306
